IRIDIUM 159             
1 43578U 18061K   24101.54276015  .00000319  00000+0  10668-3 0  9997
2 43578  86.4011  30.0405 0002153  87.5246 272.6196 14.34218194299059
IRIDIUM 180             
1 43922U 19002A   24101.33295373  .00000267  00000+0  88303-4 0  9995
2 43922  86.3968 327.0499 0002110  87.0037 273.1400 14.34220475274636
IRIDIUM 176             
1 43923U 19002B   24101.55797610  .00001013  00000+0  15676-3 0  9993
2 43923  86.6096 326.9825 0002450  89.9975 270.1523 14.72250229281893
IRIDIUM 168             
1 43924U 19002C   24101.60567509  .00000304  00000+0  10158-3 0  9994
2 43924  86.3970 326.9907 0002028  87.8901 272.2527 14.34221188274653
IRIDIUM 173             
1 43925U 19002D   24101.38369671  .00000313  00000+0  10475-3 0  9992
2 43925  86.3968 327.0051 0002096  88.0897 272.0539 14.34219249274606
IRIDIUM 169             
1 43926U 19002E   24101.44754292  .00000448  00000+0  13990-3 0  9991
2 43926  86.4278 358.5777 0004423  89.3063 270.8642 14.38602000275530
IRIDIUM 172             
1 43927U 19002F   24101.37735992  .00000324  00000+0  10849-3 0  9993
2 43927  86.3968 327.0132 0002022  87.9198 272.2229 14.34219317274614
IRIDIUM 175             
1 43928U 19002G   24101.55212304  .00000367  00000+0  54169-4 0  9992
2 43928  86.1469 303.9441 0002272  88.5467 271.6009 14.72236694281883
